*******************************************************************************
Ephemeris / WWW_USER Thu Dec  5 18:35:29 2024 Pasadena, USA      / Horizons    
*******************************************************************************
Target body name: Titan (606)                     {source: sat441l}
Center body name: Earth (399)                     {source: DE441}
Center-site name: Mauna Kea
*******************************************************************************
Start time      : A.D. 2018-Dec-20 03:57:00.0000 UT      
Stop  time      : A.D. 2018-Dec-20 16:41:00.0000 UT      
Step-size       : 1 minutes
*******************************************************************************
Target pole/equ : IAU_TITAN                       {West-longitude positive}
Target radii    : 2575.15, 2574.78, 2574.47 km    {Equator_a, b, pole_c}       
Center geodetic : 204.5278, 19.8260847, 4.21024   {E-lon(deg),Lat(deg),Alt(km)}
Center cylindric: 204.5278, 6006.35451, 2151.0229 {E-lon(deg),Dxy(km),Dz(km)}
Center pole/equ : ITRF93                          {East-longitude positive}
Center radii    : 6378.137, 6378.137, 6356.752 km {Equator_a, b, pole_c}       
Target primary  : Saturn
Vis. interferer : MOON (R_eq= 1737.400) km        {source: DE441}
Rel. light bend : Sun                             {source: DE441}
Rel. lght bnd GM: 1.3271E+11 km^3/s^2                                          
Atmos refraction: NO (AIRLESS)
RA format       : HMS
Time format     : CAL 
Calendar mode   : Mixed Julian/Gregorian
RTS-only print  : NO       
EOP file        : eop.241205.p250303                                           
EOP coverage    : DATA-BASED 1962-JAN-20 TO 2024-DEC-05. PREDICTS-> 2025-MAR-02
Units conversion: 1 au= 149597870.700 km, c= 299792.458 km/s, 1 day= 86400.0 s 
Table cut-offs 1: Elevation (-90.0deg=NO ),Airmass (>38.000=NO), Daylight (YES)
Table cut-offs 2: Solar elongation (  0.0,180.0=NO ),Local Hour Angle( 0.0=NO )
Table cut-offs 3: RA/DEC angular rate (     0.0=NO )                           
*******************************************************************************
 Date__(UT)__HR:MN     R.A._________(ICRF)_________DEC
******************************************************
$$SOE
 2018-Dec-20 11:00  m  18 42 24.935796 -22 34 01.73117
 2018-Dec-20 11:01  m  18 42 24.959735 -22 34 01.72498
 2018-Dec-20 11:02  m  18 42 24.983673 -22 34 01.71880
 2018-Dec-20 11:03  m  18 42 25.007611 -22 34 01.71263
 2018-Dec-20 11:04  m  18 42 25.031549 -22 34 01.70646
 2018-Dec-20 11:05  m  18 42 25.055486 -22 34 01.70031
 2018-Dec-20 11:06  m  18 42 25.079423 -22 34 01.69417
 2018-Dec-20 11:07  m  18 42 25.103360 -22 34 01.68803
 2018-Dec-20 11:08  m  18 42 25.127296 -22 34 01.68191
 2018-Dec-20 11:09  m  18 42 25.151232 -22 34 01.67580
 2018-Dec-20 11:10  m  18 42 25.175168 -22 34 01.66969
 2018-Dec-20 11:11  m  18 42 25.199103 -22 34 01.66359
 2018-Dec-20 11:12  m  18 42 25.223038 -22 34 01.65751
 2018-Dec-20 11:13  m  18 42 25.246973 -22 34 01.65143
 2018-Dec-20 11:14  m  18 42 25.270907 -22 34 01.64536
 2018-Dec-20 11:15  m  18 42 25.294840 -22 34 01.63930
 2018-Dec-20 11:16  m  18 42 25.318774 -22 34 01.63325
 2018-Dec-20 11:17  m  18 42 25.342707 -22 34 01.62721
 2018-Dec-20 11:18  m  18 42 25.366639 -22 34 01.62118
 2018-Dec-20 11:19  m  18 42 25.390572 -22 34 01.61516
 2018-Dec-20 11:20  m  18 42 25.414504 -22 34 01.60915
 2018-Dec-20 11:21  m  18 42 25.438435 -22 34 01.60314
 2018-Dec-20 11:22  m  18 42 25.462366 -22 34 01.59715
 2018-Dec-20 11:23  m  18 42 25.486297 -22 34 01.59116
 2018-Dec-20 11:24  m  18 42 25.510227 -22 34 01.58519
 2018-Dec-20 11:25  m  18 42 25.534156 -22 34 01.57922
 2018-Dec-20 11:26  m  18 42 25.558086 -22 34 01.57327
 2018-Dec-20 11:27  m  18 42 25.582015 -22 34 01.56732
 2018-Dec-20 11:28  m  18 42 25.605943 -22 34 01.56138
 2018-Dec-20 11:29  m  18 42 25.629871 -22 34 01.55545
 2018-Dec-20 11:30  m  18 42 25.653799 -22 34 01.54953
 2018-Dec-20 11:31  m  18 42 25.677726 -22 34 01.54362
 2018-Dec-20 11:32  m  18 42 25.701652 -22 34 01.53772
 2018-Dec-20 11:33  m  18 42 25.725578 -22 34 01.53183
 2018-Dec-20 11:34  m  18 42 25.749504 -22 34 01.52595
 2018-Dec-20 11:35  m  18 42 25.773429 -22 34 01.52007
 2018-Dec-20 11:36  m  18 42 25.797354 -22 34 01.51421
 2018-Dec-20 11:37  m  18 42 25.821278 -22 34 01.50836
 2018-Dec-20 11:38  m  18 42 25.845202 -22 34 01.50251
 2018-Dec-20 11:39  m  18 42 25.869125 -22 34 01.49668
 2018-Dec-20 11:40  m  18 42 25.893048 -22 34 01.49085
 2018-Dec-20 11:41  m  18 42 25.916970 -22 34 01.48503
 2018-Dec-20 11:42  m  18 42 25.940892 -22 34 01.47922
 2018-Dec-20 11:43  m  18 42 25.964813 -22 34 01.47342
 2018-Dec-20 11:44  m  18 42 25.988734 -22 34 01.46763
 2018-Dec-20 11:45  m  18 42 26.012654 -22 34 01.46185
 2018-Dec-20 11:46  m  18 42 26.036574 -22 34 01.45608
 2018-Dec-20 11:47  m  18 42 26.060493 -22 34 01.45032
 2018-Dec-20 11:48  m  18 42 26.084412 -22 34 01.44457
 2018-Dec-20 11:49  m  18 42 26.108330 -22 34 01.43882
 2018-Dec-20 11:50  m  18 42 26.132248 -22 34 01.43309
 2018-Dec-20 11:51  m  18 42 26.156165 -22 34 01.42737
 2018-Dec-20 11:52  m  18 42 26.180081 -22 34 01.42165
 2018-Dec-20 11:53  m  18 42 26.203997 -22 34 01.41594
 2018-Dec-20 11:54  m  18 42 26.227912 -22 34 01.41024
 2018-Dec-20 11:55  m  18 42 26.251827 -22 34 01.40456
 2018-Dec-20 11:56  m  18 42 26.275741 -22 34 01.39888
 2018-Dec-20 11:57  m  18 42 26.299655 -22 34 01.39321
 2018-Dec-20 11:58  m  18 42 26.323568 -22 34 01.38755
 2018-Dec-20 11:59  m  18 42 26.347480 -22 34 01.38189
 2018-Dec-20 12:00  m  18 42 26.371392 -22 34 01.37625
 2018-Dec-20 12:01  m  18 42 26.395303 -22 34 01.37062
 2018-Dec-20 12:02  m  18 42 26.419214 -22 34 01.36499
 2018-Dec-20 12:03  m  18 42 26.443124 -22 34 01.35938
 2018-Dec-20 12:04  m  18 42 26.467034 -22 34 01.35377
 2018-Dec-20 12:05  m  18 42 26.490942 -22 34 01.34818
 2018-Dec-20 12:06  m  18 42 26.514851 -22 34 01.34259
 2018-Dec-20 12:07  m  18 42 26.538758 -22 34 01.33701
 2018-Dec-20 12:08  m  18 42 26.562665 -22 34 01.33144
 2018-Dec-20 12:09  m  18 42 26.586572 -22 34 01.32588
 2018-Dec-20 12:10  m  18 42 26.610477 -22 34 01.32033
 2018-Dec-20 12:11  m  18 42 26.634382 -22 34 01.31479
 2018-Dec-20 12:12  m  18 42 26.658287 -22 34 01.30925
 2018-Dec-20 12:13  m  18 42 26.682190 -22 34 01.30373
 2018-Dec-20 12:14  m  18 42 26.706094 -22 34 01.29821
 2018-Dec-20 12:15  m  18 42 26.729996 -22 34 01.29271
 2018-Dec-20 12:16  m  18 42 26.753898 -22 34 01.28721
 2018-Dec-20 12:17  m  18 42 26.777799 -22 34 01.28172
 2018-Dec-20 12:18  m  18 42 26.801699 -22 34 01.27624
 2018-Dec-20 12:19  m  18 42 26.825599 -22 34 01.27077
 2018-Dec-20 12:20  m  18 42 26.849498 -22 34 01.26531
 2018-Dec-20 12:21  m  18 42 26.873397 -22 34 01.25986
 2018-Dec-20 12:22  m  18 42 26.897294 -22 34 01.25442
 2018-Dec-20 12:23  m  18 42 26.921191 -22 34 01.24898
 2018-Dec-20 12:24  m  18 42 26.945088 -22 34 01.24356
 2018-Dec-20 12:25  m  18 42 26.968983 -22 34 01.23814
 2018-Dec-20 12:26  m  18 42 26.992878 -22 34 01.23273
 2018-Dec-20 12:27  m  18 42 27.016772 -22 34 01.22734
 2018-Dec-20 12:28  m  18 42 27.040666 -22 34 01.22195
 2018-Dec-20 12:29  m  18 42 27.064558 -22 34 01.21657
 2018-Dec-20 12:30  m  18 42 27.088450 -22 34 01.21120
 2018-Dec-20 12:31  m  18 42 27.112342 -22 34 01.20583
 2018-Dec-20 12:32  m  18 42 27.136232 -22 34 01.20048
 2018-Dec-20 12:33  m  18 42 27.160122 -22 34 01.19514
 2018-Dec-20 12:34  m  18 42 27.184011 -22 34 01.18980
 2018-Dec-20 12:35  m  18 42 27.207899 -22 34 01.18447
 2018-Dec-20 12:36  m  18 42 27.231787 -22 34 01.17915
 2018-Dec-20 12:37  m  18 42 27.255674 -22 34 01.17385
 2018-Dec-20 12:38  m  18 42 27.279560 -22 34 01.16854
 2018-Dec-20 12:39  m  18 42 27.303445 -22 34 01.16325
 2018-Dec-20 12:40  m  18 42 27.327329 -22 34 01.15797
 2018-Dec-20 12:41  m  18 42 27.351213 -22 34 01.15270
 2018-Dec-20 12:42  m  18 42 27.375096 -22 34 01.14743
 2018-Dec-20 12:43  m  18 42 27.398978 -22 34 01.14218
 2018-Dec-20 12:44  m  18 42 27.422859 -22 34 01.13693
 2018-Dec-20 12:45  m  18 42 27.446740 -22 34 01.13169
 2018-Dec-20 12:46  m  18 42 27.470620 -22 34 01.12646
 2018-Dec-20 12:47  m  18 42 27.494499 -22 34 01.12124
 2018-Dec-20 12:48  m  18 42 27.518377 -22 34 01.11603
 2018-Dec-20 12:49  m  18 42 27.542254 -22 34 01.11082
 2018-Dec-20 12:50  m  18 42 27.566131 -22 34 01.10563
 2018-Dec-20 12:51  m  18 42 27.590006 -22 34 01.10044
 2018-Dec-20 12:52  m  18 42 27.613881 -22 34 01.09526
 2018-Dec-20 12:53  m  18 42 27.637755 -22 34 01.09009
 2018-Dec-20 12:54  m  18 42 27.661629 -22 34 01.08493
 2018-Dec-20 12:55  m  18 42 27.685501 -22 34 01.07978
 2018-Dec-20 12:56  m  18 42 27.709372 -22 34 01.07464
 2018-Dec-20 12:57  m  18 42 27.733243 -22 34 01.06950
 2018-Dec-20 12:58  m  18 42 27.757113 -22 34 01.06438
 2018-Dec-20 12:59  m  18 42 27.780982 -22 34 01.05926
 2018-Dec-20 13:00  m  18 42 27.804850 -22 34 01.05415
 2018-Dec-20 13:01  m  18 42 27.828717 -22 34 01.04905
 2018-Dec-20 13:02  m  18 42 27.852584 -22 34 01.04396
 2018-Dec-20 13:03  m  18 42 27.876449 -22 34 01.03888
 2018-Dec-20 13:04  m  18 42 27.900314 -22 34 01.03381
 2018-Dec-20 13:05  m  18 42 27.924178 -22 34 01.02874
 2018-Dec-20 13:06  m  18 42 27.948040 -22 34 01.02368
 2018-Dec-20 13:07  m  18 42 27.971902 -22 34 01.01863
 2018-Dec-20 13:08  m  18 42 27.995764 -22 34 01.01359
 2018-Dec-20 13:09  m  18 42 28.019624 -22 34 01.00856
 2018-Dec-20 13:10  m  18 42 28.043483 -22 34 01.00354
 2018-Dec-20 13:11  m  18 42 28.067341 -22 34 00.99852
 2018-Dec-20 13:12  m  18 42 28.091199 -22 34 00.99352
 2018-Dec-20 13:13  m  18 42 28.115056 -22 34 00.98852
 2018-Dec-20 13:14  m  18 42 28.138911 -22 34 00.98353
 2018-Dec-20 13:15  m  18 42 28.162766 -22 34 00.97855
 2018-Dec-20 13:16  m  18 42 28.186620 -22 34 00.97358
 2018-Dec-20 13:17  m  18 42 28.210473 -22 34 00.96861
 2018-Dec-20 13:18  m  18 42 28.234325 -22 34 00.96366
 2018-Dec-20 13:19  m  18 42 28.258176 -22 34 00.95871
 2018-Dec-20 13:20  m  18 42 28.282026 -22 34 00.95377
